NIMIQ 4                 
1 33373U 08044A   26171.22475840  .00000000  00000+0  00000+0 0  9992
2 33373   0.0401  55.1196 0002048  35.8433 176.4216  1.00266939 65018
GALAXY 19 (G-19)        
1 33376U 08045A   26171.23030740 -.00000144  00000+0  00000+0 0  9993
2 33376   0.0283 264.0244 0002615 191.2069 159.1235  1.00271246 64932
ASTRA 1M                
1 33436U 08057A   26171.25327019  .00000116  00000+0  00000+0 0  9991
2 33436   0.3054  82.5171 0004903  26.1430 270.3521  1.00273326 45765
EUTELSAT HOTBIRD 13C    
1 33459U 08065A   26171.23940345 -.00000288  00000+0  00000+0 0  9997
2 33459   2.9592  79.1590 0003454   9.7934 215.3779  1.00270008 47375
EXPRESS-AM44            
1 33595U 09007A   26171.17591698 -.00000095  00000+0  00000+0 0  9997
2 33595   3.4724  78.3623 0004031   4.8647 237.4787  1.00271182 52314
NSS-9                   
1 33749U 09008A   26171.26836788  .00000066  00000+0  00000+0 0  9998
2 33749   1.2708  82.6312 0002070 348.4524 117.0647  1.00271439 63559
TELSTAR 11N             
1 34111U 09009A   26171.20647115 -.00000256  00000+0  00000+0 0  9993
2 34111   0.0298  74.3216 0002329  17.9253 212.9246  1.00269868 46272
WGS F2 (USA 204)        
1 34713U 09017A   26171.18935038  .00000063  00000+0  00000+0 0  9996
2 34713   0.0188  12.8843 0000040 357.6361  23.5517  1.00272429 45647
SES-7 (PROTOSTAR 2)     
1 34941U 09027A   26171.02822510 -.00000350  00000+0  00000+0 0  9993
2 34941   0.0455  71.2667 0000468 280.8168  34.5669  1.00270553 62652
MEASAT-3A               
1 35362U 09032A   26171.20980074 -.00000115  00000+0  00000+0 0  9996
2 35362   0.0226   7.7409 0002982  73.9945  62.2264  1.00271927  8061
GOES 14                 
1 35491U 09033A   26171.27712293 -.00000308  00000+0  00000+0 0  9997
2 35491   1.6991  83.0091 0001916  12.9216  52.3600  1.00110077  6626
FM-5                    
1 35493U 09034A   26171.22475840 -.00000205  00000+0  00000+0 0  9995
2 35493   0.0208 292.0003 0000803  26.7697 304.4171  1.00270626 46677
TERRESTAR-1             
1 35496U 09035A   26171.18714591 -.00000063  00000+0  00000+0 0  9995
2 35496   5.1789  48.7959 0002691  33.5104 142.4586  1.00272858 62163
ASIASAT 5               
1 35696U 09042A   26171.12671885  .00000000  00000+0  00000+0 0  9997
2 35696   0.0314  52.2652 0001582  37.9080 324.3515  1.00265879 61732
JCSAT-12 (JCSAT-RA)     
1 35755U 09044A   26171.00754134 -.00000333  00000+0  00000+0 0  9991
2 35755   0.0100 351.7188 0000472 307.7609 103.5056  1.00274844 61632
OPTUS D3                
1 35756U 09044B   26170.92388350 -.00000151  00000+0  00000+0 0  9993
2 35756   0.8768 268.9127 0002959 176.0247 311.9383  1.00270138 61595
NIMIQ 5                 
1 35873U 09050A   26171.21919773  .00000000  00000+0  00000+0 0  9994
2 35873   0.0200   9.6488 0002757  73.1174 191.8861  1.00269744 61373
AMAZONAS 2              
1 35942U 09054A   26171.21919773 -.00000264  00000+0  00000+0 0  9998
2 35942   1.8245  83.0138 0003217   7.6586 184.6766  1.00272532 61213
COMSATBW-1              
1 35943U 09054B   26171.11935014  .00000020  00000+0  00000+0 0  9993
2 35943   0.0525 157.9793 0002841 289.0909 287.2692  1.00269250 61335
NSS-12                  
1 36032U 09058A   26171.18935038  .00000066  00000+0  00000+0 0  9990
2 36032   0.0901 275.1289 0005080 143.5611 334.8734  1.00272948 60948
THOR 6                  
1 36033U 09058B   26171.24928350 -.00000015  00000+0  00000+0 0  9992
2 36033   0.0302 109.2282 0001684 338.7514 269.3800  1.00271829 61034
INTELSAT 14 (IS-14)     
1 36097U 09064A   26171.24648492 -.00000278  00000+0  00000+0 0  9996
2 36097   0.0169 335.0088 0002391 113.2919 223.8992  1.00271568 60631
EUTELSAT 36B            
1 36101U 09065A   26171.25942354  .00000108  00000+0  00000+0 0  9999
2 36101   0.4999  81.1551 0005544   5.7068 325.4948  1.00269463 60731
INTELSAT 15 (IS-15)     
1 36106U 09067A   26171.12368350 -.00000190  00000+0  00000+0 0  9992
2 36106   0.0162 350.1082 0002191  99.5887 308.3134  1.00272135 41250
WGS F3 (USA 211)        
1 36108U 09068A   26171.03517034  .00000059  00000+0  00000+0 0  9993
2 36108   0.3243  85.7411 0000228 285.9294 139.2418  1.00271023 46621
DIRECTV 12              
1 36131U 09075A   26171.12368068 -.00000108  00000+0  00000+0 0  9994
2 36131   0.0333 172.6604 0000305 302.1866  95.2890  1.00271840 46584
BEIDOU-2 G1             
1 36287U 10001A   26170.92076348 -.00000287  00000+0  00000+0 0  9999
2 36287   4.3008  60.4070 0002261 297.4453  22.2130  1.00269320 60194
SDO                     
1 36395U 10005A   26170.38591488 -.00000089  00000+0  00000+0 0  9990
2 36395  34.6572  86.3078 0001831  48.8927 169.2237  1.00270271 60082
INTELSAT 16 (IS-16)     
1 36397U 10006A   26171.21919773 -.00000250  00000+0  00000+0 0  9997
2 36397   0.0097 354.1761 0002046 108.9887 167.9735  1.00272128 59685
EWS-G2 (GOES 15)        
1 36411U 10008A   26171.11943681  .00000015  00000+0  00000+0 0  9998
2 36411   1.2866  82.8036 0004924  42.0631 250.1257  1.00266729 59663
ECHOSTAR 14             
1 36499U 10010A   26171.22590882 -.00000004  00000+0  00000+0 0  9999
2 36499   0.0149  40.3385 0002455  59.3861 131.1397  1.00270101 46588
SES-1                   
1 36516U 10016A   26171.23030740 -.00000119  00000+0  00000+0 0  9995
2 36516   0.0273 302.0740 0002695 143.7112 164.5609  1.00270994 59065
