OBJECT_NAME,OBJECT_ID,EPOCH,MEAN_MOTION,ECCENTRICITY,INCLINATION,RA_OF_ASC_NODE,ARG_OF_PERICENTER,MEAN_ANOMALY,EPHEMERIS_TYPE,CLASSIFICATION_TYPE,NORAD_CAT_ID,ELEMENT_SET_NO,REV_AT_EPOCH,BSTAR,MEAN_MOTION_DOT,MEAN_MOTION_DDOT
NIMIQ 4,2008-044A,2026-06-20T05:23:39.125760,1.00266939,.00020484,0.0401,55.1196,35.8433,176.4216,0,U,33373,999,6501,0,0,0
GALAXY 19 (G-19),2008-045A,2026-06-20T05:31:38.559360,1.00271246,.00026151,0.0283,264.0244,191.2069,159.1235,0,U,33376,999,6493,0,-.144E-5,0
ASTRA 1M,2008-057A,2026-06-20T06:04:42.544416,1.00273326,.00049031,0.3054,82.5171,26.1430,270.3521,0,U,33436,999,4576,0,.116E-5,0
EUTELSAT HOTBIRD 13C,2008-065A,2026-06-20T05:44:44.458080,1.00270008,.00034545,2.9592,79.1590,9.7934,215.3779,0,U,33459,999,4737,0,-.288E-5,0
EXPRESS-AM44,2009-007A,2026-06-20T04:13:19.227072,1.00271182,.00040313,3.4724,78.3623,4.8647,237.4787,0,U,33595,999,5231,0,-.95E-6,0
NSS-9,2009-008A,2026-06-20T06:26:26.984832,1.00271439,.00020706,1.2708,82.6312,348.4524,117.0647,0,U,33749,999,6355,0,.66E-6,0
TELSTAR 11N,2009-009A,2026-06-20T04:57:19.107360,1.00269868,.00023294,0.0298,74.3216,17.9253,212.9246,0,U,34111,999,4627,0,-.256E-5,0
WGS F2 (USA 204),2009-017A,2026-06-20T04:32:39.872832,1.00272429,.000004,0.0188,12.8843,357.6361,23.5517,0,U,34713,999,4564,0,.63E-6,0
SES-7 (PROTOSTAR 2),2009-027A,2026-06-20T00:40:38.648640,1.00270553,.00004688,0.0455,71.2667,280.8168,34.5669,0,U,34941,999,6265,0,-.35E-5,0
MEASAT-3A,2009-032A,2026-06-20T05:02:06.783936,1.00271927,.00029821,0.0226,7.7409,73.9945,62.2264,0,U,35362,999,806,0,-.115E-5,0
GOES 14,2009-033A,2026-06-20T06:39:03.421152,1.00110077,.00019162,1.6991,83.0091,12.9216,52.3600,0,U,35491,999,662,0,-.308E-5,0
FM-5,2009-034A,2026-06-20T05:23:39.125760,1.00270626,.00008031,0.0208,292.0003,26.7697,304.4171,0,U,35493,999,4667,0,-.205E-5,0
TERRESTAR-1,2009-035A,2026-06-20T04:29:29.406624,1.00272858,.00026915,5.1789,48.7959,33.5104,142.4586,0,U,35496,999,6216,0,-.63E-6,0
ASIASAT 5,2009-042A,2026-06-20T03:02:28.508640,1.00265879,.00015821,0.0314,52.2652,37.9080,324.3515,0,U,35696,999,6173,0,0,0
JCSAT-12 (JCSAT-RA),2009-044A,2026-06-20T00:10:51.571776,1.00274844,.00004728,0.0100,351.7188,307.7609,103.5056,0,U,35755,999,6163,0,-.333E-5,0
OPTUS D3,2009-044B,2026-06-19T22:10:23.534400,1.00270138,.0002959,0.8768,268.9127,176.0247,311.9383,0,U,35756,999,6159,0,-.151E-5,0
NIMIQ 5,2009-050A,2026-06-20T05:15:38.683872,1.00269744,.00027574,0.0200,9.6488,73.1174,191.8861,0,U,35873,999,6137,0,0,0
AMAZONAS 2,2009-054A,2026-06-20T05:15:38.683872,1.00272532,.00032172,1.8245,83.0138,7.6586,184.6766,0,U,35942,999,6121,0,-.264E-5,0
COMSATBW-1,2009-054B,2026-06-20T02:51:51.852096,1.00269250,.0002841,0.0525,157.9793,289.0909,287.2692,0,U,35943,999,6133,0,.2E-6,0
NSS-12,2009-058A,2026-06-20T04:32:39.872832,1.00272948,.000508,0.0901,275.1289,143.5611,334.8734,0,U,36032,999,6094,0,.66E-6,0
THOR 6,2009-058B,2026-06-20T05:58:58.094400,1.00271829,.0001684,0.0302,109.2282,338.7514,269.3800,0,U,36033,999,6103,0,-.15E-6,0
INTELSAT 14 (IS-14),2009-064A,2026-06-20T05:54:56.297088,1.00271568,.00023919,0.0169,335.0088,113.2919,223.8992,0,U,36097,999,6063,0,-.278E-5,0
EUTELSAT 36B,2009-065A,2026-06-20T06:13:34.193856,1.00269463,.00055442,0.4999,81.1551,5.7068,325.4948,0,U,36101,999,6073,0,.108E-5,0
INTELSAT 15 (IS-15),2009-067A,2026-06-20T02:58:06.254400,1.00272135,.00021912,0.0162,350.1082,99.5887,308.3134,0,U,36106,999,4125,0,-.19E-5,0
WGS F3 (USA 211),2009-068A,2026-06-20T00:50:38.717376,1.00271023,.00002287,0.3243,85.7411,285.9294,139.2418,0,U,36108,999,4662,0,.59E-6,0
DIRECTV 12,2009-075A,2026-06-20T02:58:06.010752,1.00271840,.00003053,0.0333,172.6604,302.1866,95.2890,0,U,36131,999,4658,0,-.108E-5,0
BEIDOU-2 G1,2010-001A,2026-06-19T22:05:53.964672,1.00269320,.00022614,4.3008,60.4070,297.4453,22.2130,0,U,36287,999,6019,0,-.287E-5,0
SDO,2010-005A,2026-06-19T09:15:43.045632,1.00270271,.00018315,34.6572,86.3078,48.8927,169.2237,0,U,36395,999,6008,0,-.89E-6,0
INTELSAT 16 (IS-16),2010-006A,2026-06-20T05:15:38.683872,1.00272128,.00020468,0.0097,354.1761,108.9887,167.9735,0,U,36397,999,5968,0,-.25E-5,0
EWS-G2 (GOES 15),2010-008A,2026-06-20T02:51:59.340384,1.00266729,.0004924,1.2866,82.8036,42.0631,250.1257,0,U,36411,999,5966,0,.15E-6,0
ECHOSTAR 14,2010-010A,2026-06-20T05:25:18.522048,1.00270101,.00024556,0.0149,40.3385,59.3861,131.1397,0,U,36499,999,4658,0,-.4E-7,0
SES-1,2010-016A,2026-06-20T05:31:38.559360,1.00270994,.00026952,0.0273,302.0740,143.7112,164.5609,0,U,36516,999,5906,0,-.119E-5,0
